{
  "norad_id": 63946,
  "name": "STARLINK-34039",
  "history": [
    {
      "epoch": "2026-03-28T19:22:12.085248Z",
      "apogee_km": 574.0037425173696,
      "perigee_km": 570.0345083541324,
      "latitude_deg": 1.5192055391607321e-05,
      "longitude_deg": 109.57601580296675,
      "height_km": 574.4655359502635,
      "semi_major_axis_km": 6950.15612543575,
      "eccentricity": 0.00028555,
      "inclination_deg": 70.0019,
      "raan_deg": 226.3486,
      "arg_perigee_deg": 269.4529,
      "mean_anomaly_deg": 90.6303,
      "mean_motion_rev_day": 14.98341889
    },
    {
      "epoch": "2026-03-30T04:00:01.999584Z",
      "apogee_km": 574.3961391748035,
      "perigee_km": 569.878460879786,
      "latitude_deg": 45.473473981123426,
      "longitude_deg": 133.75808195640138,
      "height_km": 580.1708074778957,
      "semi_major_axis_km": 6950.274300027295,
      "eccentricity": 0.000325,
      "inclination_deg": 70.0008,
      "raan_deg": 222.9211,
      "arg_perigee_deg": 269.4922,
      "mean_anomaly_deg": 221.3113,
      "mean_motion_rev_day": 14.98303675
    },
    {
      "epoch": "2026-03-30T08:00:01.000224Z",
      "apogee_km": 574.3110414100875,
      "perigee_km": 569.8712356751867,
      "latitude_deg": -46.721830033837165,
      "longitude_deg": -107.83657597850373,
      "height_km": 587.9127082646061,
      "semi_major_axis_km": 6950.228138542637,
      "eccentricity": 0.0003194,
      "inclination_deg": 70.0009,
      "raan_deg": 222.501,
      "arg_perigee_deg": 267.8967,
      "mean_anomaly_deg": 41.5729,
      "mean_motion_rev_day": 14.98318602
    },
    {
      "epoch": "2026-03-31T14:40:04.953216Z",
      "apogee_km": 574.2990649256553,
      "perigee_km": 569.757826823321,
      "latitude_deg": 2.98475480586892e-05,
      "longitude_deg": 170.27290892717951,
      "height_km": 574.4292274300087,
      "semi_major_axis_km": 6950.165445874488,
      "eccentricity": 0.0003267,
      "inclination_deg": 70.0019,
      "raan_deg": 219.2796,
      "arg_perigee_deg": 270.6831,
      "mean_anomaly_deg": 89.3954,
      "mean_motion_rev_day": 14.98338875
    },
    {
      "epoch": "2026-04-01T20:00:01.999008Z",
      "apogee_km": 574.4275376021051,
      "perigee_km": 569.7180754372075,
      "latitude_deg": 61.677721433416316,
      "longitude_deg": -136.19224399967732,
      "height_km": 584.2781151915689,
      "semi_major_axis_km": 6950.209806519656,
      "eccentricity": 0.0003388,
      "inclination_deg": 70.0016,
      "raan_deg": 216.1971,
      "arg_perigee_deg": 274.3076,
      "mean_anomaly_deg": 196.3489,
      "mean_motion_rev_day": 14.9832453
    },
    {
      "epoch": "2026-04-02T20:00:01.999008Z",
      "apogee_km": 574.41181214679,
      "perigee_km": 569.653725922909,
      "latitude_deg": 66.34010641876124,
      "longitude_deg": -153.21001925604594,
      "height_km": 585.2270796009768,
      "semi_major_axis_km": 6950.169769034849,
      "eccentricity": 0.0003423,
      "inclination_deg": 70.0019,
      "raan_deg": 213.676,
      "arg_perigee_deg": 273.5291,
      "mean_anomaly_deg": 189.5923,
      "mean_motion_rev_day": 14.98337477
    },
    {
      "epoch": "2026-04-02T22:00:01.999584Z",
      "apogee_km": 574.3027714628233,
      "perigee_km": 569.6114579354007,
      "latitude_deg": -11.865035826392974,
      "longitude_deg": -123.43965004955095,
      "height_km": 576.2710847845913,
      "semi_major_axis_km": 6950.094114699112,
      "eccentricity": 0.0003375,
      "inclination_deg": 70.0019,
      "raan_deg": 213.466,
      "arg_perigee_deg": 272.5416,
      "mean_anomaly_deg": 279.9449,
      "mean_motion_rev_day": 14.98361942
    },
    {
      "epoch": "2026-04-03T17:58:23.364192Z",
      "apogee_km": 574.4678844763403,
      "perigee_km": 569.5360658595619,
      "latitude_deg": 3.2827387013047026e-05,
      "longitude_deg": 109.69082888114387,
      "height_km": 574.2386648801972,
      "semi_major_axis_km": 6950.138975167951,
      "eccentricity": 0.0003548,
      "inclination_deg": 70.0021,
      "raan_deg": 211.3669,
      "arg_perigee_deg": 274.452,
      "mean_anomaly_deg": 85.6234,
      "mean_motion_rev_day": 14.98347435
    }
  ]
}